{"type": "FeatureCollection", "features": [ {"type": "Feature", "properties": {"norad_id": 30942, "name": "FENGYUN 1C DEB", "group": "fengyun-1c-debris", "lat": -65.27638945733216, "lon": -1.8945279664029904, "alt_km": 947.6534371985581, "timestamp": "2025-12-06T07:31:40.516566+00:00", "meta": {"OBJECT_NAME": "FENGYUN 1C DEB", "OBJECT_ID": "1999-025BAG", "EPOCH": "2025-12-03T17:51:47.501856", "MEAN_MOTION": 14.1482492, "ECCENTRICITY": 0.01377953, "INCLINATION": 98.6795, "RA_OF_ASC_NODE": 336.2314, "ARG_OF_PERICENTER": 131.8654, "MEAN_ANOMALY": 41.7268, "EPHEMERIS_TYPE": 0, "CLASSIFICATION_TYPE": "U", "NORAD_CAT_ID": 30942, "ELEMENT_SET_NO": 999, "REV_AT_EPOCH": 96517, "BSTAR": 0.00028451426, "MEAN_MOTION_DOT": 5.6e-06, "MEAN_MOTION_DDOT": 0}, "tle": {"line1": "1 30942U 99025BAG 25337.74429979  .00000560  00000+0  28451-3 0  9997", "line2": "2 30942  98.6795 336.2314 0137795 131.8654  41.7268 14.14824920965177"}}, "geometry": {"type": "Point", "coordinates": [-1.8945279664029904, -65.27638945733216]}}, {"type": "Feature", "properties": {"norad_id": 30943, "name": "FENGYUN 1C DEB", "group": "fengyun-1c-debris", "lat": 28.732966296039013, "lon": 179.30466442995086, "alt_km": 862.6254718650662, "timestamp": "2025-12-06T07:31:40.516576+00:00", "meta": {"OBJECT_NAME": "FENGYUN 1C DEB", "OBJECT_ID": "1999-025BAH", "EPOCH": "2025-12-04T00:06:18.307584", "MEAN_MOTION": 14.04476353, "ECCENTRICITY": 0.005111, "INCLINATION": 98.7974, "RA_OF_ASC_NODE": 352.1973, "ARG_OF_PERICENTER": 89.6566, "MEAN_ANOMALY": 271.0458, "EPHEMERIS_TYPE": 0, "CLASSIFICATION_TYPE": "U", "NORAD_CAT_ID": 30943, "ELEMENT_SET_NO": 999, "REV_AT_EPOCH": 95619, "BSTAR": 0.00029984188, "MEAN_MOTION_DOT": 4.42e-06, "MEAN_MOTION_DDOT": 0}, "tle": {"line1": "1 30943U 99025BAH 25338.00437856  .00000442  00000+0  29984-3 0  9992", "line2": "2 30943  98.7974 352.1973 0051110  89.6566 271.0458 14.04476353956197"}}, "geometry": {"type": "Point", "coordinates": [179.30466442995086, 28.732966296039013]}}, {"type": "Feature", "properties": {"norad_id": 30944, "name": "FENGYUN 1C DEB", "group": "fengyun-1c-debris", "lat": -55.18592211167579, "lon": 48.612708258494386, "alt_km": 830.3913316177823, "timestamp": "2025-12-06T07:31:40.516586+00:00", "meta": {"OBJECT_NAME": "FENGYUN 1C DEB", "OBJECT_ID": "1999-025BAJ", "EPOCH": "2025-12-03T10:25:10.473600", "MEAN_MOTION": 14.52419453, "ECCENTRICITY": 0.01492276, "INCLINATION": 98.8519, "RA_OF_ASC_NODE": 32.6261, "ARG_OF_PERICENTER": 128.6265, "MEAN_ANOMALY": 247.8996, "EPHEMERIS_TYPE": 0, "CLASSIFICATION_TYPE": "U", "NORAD_CAT_ID": 30944, "ELEMENT_SET_NO": 999, "REV_AT_EPOCH": 98941, "BSTAR": 0.00025340417, "MEAN_MOTION_DOT": 1.138e-05, "MEAN_MOTION_DDOT": 0}, "tle": {"line1": "1 30944U 99025BAJ 25337.43414900  .00001138  00000+0  25340-3 0  9999", "line2": "2 30944  98.8519  32.6261 0149227 128.6265 247.8996 14.52419453989411"}}, "geometry": {"type": "Point", "coordinates": [48.612708258494386, -55.18592211167579]}}, {"type": "Feature", "properties": {"norad_id": 30945, "name": "FENGYUN 1C DEB", "group": "fengyun-1c-debris", "lat": -40.44527039478909, "lon": 160.37308957537792, "alt_km": 820.8505427055106, "timestamp": "2025-12-06T07:31:40.516596+00:00", "meta": {"OBJECT_NAME": "FENGYUN 1C DEB", "OBJECT_ID": "1999-025BAK", "EPOCH": "2025-12-05T00:33:20.161728", "MEAN_MOTION": 14.29610847, "ECCENTRICITY": 0.00309699, "INCLINATION": 99.388, "RA_OF_ASC_NODE": 347.0906, "ARG_OF_PERICENTER": 59.9104, "MEAN_ANOMALY": 2.9022, "EPHEMERIS_TYPE": 0, "CLASSIFICATION_TYPE": "U", "NORAD_CAT_ID": 30945, "ELEMENT_SET_NO": 999, "REV_AT_EPOCH": 96327, "BSTAR": 0.0035813274, "MEAN_MOTION_DOT": 9.178e-05, "MEAN_MOTION_DDOT": 0}, "tle": {"line1": "1 30945U 99025BAK 25339.02315002  .00009178  00000+0  35813-2 0  9997", "line2": "2 30945  99.3880 347.0906 0030969  59.9104   2.9022 14.29610847963278"}}, "geometry": {"type": "Point", "coordinates": [160.37308957537792, -40.44527039478909]}}, {"type": "Feature", "properties": {"norad_id": 30946, "name": "FENGYUN 1C DEB", "group": "fengyun-1c-debris", "lat": 69.11589904675068, "lon": -60.28203800806236, "alt_km": 739.1038698186203, "timestamp": "2025-12-06T07:31:40.516606+00:00", "meta": {"OBJECT_NAME": "FENGYUN 1C DEB", "OBJECT_ID": "1999-025BAL", "EPOCH": "2025-12-04T07:13:49.480896", "MEAN_MOTION": 14.48061123, "ECCENTRICITY": 0.0089177, "INCLINATION": 99.0397, "RA_OF_ASC_NODE": 92.906, "ARG_OF_PERICENTER": 218.0934, "MEAN_ANOMALY": 207.0045, "EPHEMERIS_TYPE": 0, "CLASSIFICATION_TYPE": "U", "NORAD_CAT_ID": 30946, "ELEMENT_SET_NO": 999, "REV_AT_EPOCH": 98229, "BSTAR": 0.0019751, "MEAN_MOTION_DOT": 7.675e-05, "MEAN_MOTION_DDOT": 0}, "tle": {"line1": "1 30946U 99025BAL 25338.30126714  .00007675  00000+0  19751-2 0  9991", "line2": "2 30946  99.0397  92.9060 0089177 218.0934 207.0045 14.48061123982294"}}, "geometry": {"type": "Point", "coordinates": [-60.28203800806236, 69.11589904675068]}}, {"type": "Feature", "properties": {"norad_id": 30947, "name": "FENGYUN 1C DEB", "group": "fengyun-1c-debris", "lat": 56.01095647224382, "lon": -143.51197905496832, "alt_km": 818.8237614253549, "timestamp": "2025-12-06T07:31:40.516617+00:00", "meta": {"OBJECT_NAME": "FENGYUN 1C DEB", "OBJECT_ID": "1999-025BAM", "EPOCH": "2025-12-01T03:41:10.986432", "MEAN_MOTION": 14.3800177, "ECCENTRICITY": 0.00958788, "INCLINATION": 98.8087, "RA_OF_ASC_NODE": 224.4953, "ARG_OF_PERICENTER": 282.3771, "MEAN_ANOMALY": 76.6697, "EPHEMERIS_TYPE": 0, "CLASSIFICATION_TYPE": "U", "NORAD_CAT_ID": 30947, "ELEMENT_SET_NO": 999, "REV_AT_EPOCH": 98326, "BSTAR": 0.00036480125, "MEAN_MOTION_DOT": 1.114e-05, "MEAN_MOTION_DDOT": 0}, "tle": {"line1": "1 30947U 99025BAM 25335.15359938  .00001114  00000+0  36480-3 0  9999", "line2": "2 30947  98.8087 224.4953 0095878 282.3771  76.6697 14.38001770983261"}}, "geometry": {"type": "Point", "coordinates": [-143.51197905496832, 56.01095647224382]}}, {"type": "Feature", "properties": {"norad_id": 30949, "name": "FENGYUN 1C DEB", "group": "fengyun-1c-debris", "lat": 1.86906140629056, "lon": 155.12131484827685, "alt_km": 921.2820781933424, "timestamp": "2025-12-06T07:31:40.516627+00:00", "meta": {"OBJECT_NAME": "FENGYUN 1C DEB", "OBJECT_ID": "1999-025BAP", "EPOCH": "2025-12-04T05:44:24.281088", "MEAN_MOTION": 14.14033885, "ECCENTRICITY": 0.0116771, "INCLINATION": 98.698, "RA_OF_ASC_NODE": 332.8158, "ARG_OF_PERICENTER": 334.205, "MEAN_ANOMALY": 90.1081, "EPHEMERIS_TYPE": 0, "CLASSIFICATION_TYPE": "U", "NORAD_CAT_ID": 30949, "ELEMENT_SET_NO": 999, "REV_AT_EPOCH": 96396, "BSTAR": 0.00044909, "MEAN_MOTION_DOT": 8.68e-06, "MEAN_MOTION_DDOT": 0}, "tle": {"line1": "1 30949U 99025BAP 25338.23916992  .00000868  00000+0  44909-3 0  9992", "line2": "2 30949  98.6980 332.8158 0116771 334.2050  90.1081 14.14033885963966"}}, "geometry": {"type": "Point", "coordinates": [155.12131484827685, 1.86906140629056]}}, {"type": "Feature", "properties": {"norad_id": 30954, "name": "FENGYUN 1C DEB", "group": "fengyun-1c-debris", "lat": -21.587386248290137, "lon": -102.90203825436411, "alt_km": 755.4093868076079, "timestamp": "2025-12-06T07:31:40.516637+00:00", "meta": {"OBJECT_NAME": "FENGYUN 1C DEB", "OBJECT_ID": "1999-025BAU", "EPOCH": "2025-12-03T12:27:02.178144", "MEAN_MOTION": 14.14849679, "ECCENTRICITY": 0.01284781, "INCLINATION": 98.7142, "RA_OF_ASC_NODE": 77.8477, "ARG_OF_PERICENTER": 213.4285, "MEAN_ANOMALY": 160.6222, "EPHEMERIS_TYPE": 0, "CLASSIFICATION_TYPE": "U", "NORAD_CAT_ID": 30954, "ELEMENT_SET_NO": 999, "REV_AT_EPOCH": 96257, "BSTAR": 0.0020209573, "MEAN_MOTION_DOT": 4.182e-05, "MEAN_MOTION_DDOT": 0}, "tle": {"line1": "1 30954U 99025BAU 25337.51877521  .00004182  00000+0  20210-2 0  9993", "line2": "2 30954  98.7142  77.8477 0128478 213.4285 160.6222 14.14849679962570"}}, "geometry": {"type": "Point", "coordinates": [-102.90203825436411, -21.587386248290137]}}, {"type": "Feature", "properties": {"norad_id": 30956, "name": "FENGYUN 1C DEB", "group": "fengyun-1c-debris", "lat": -34.32552508139373, "lon": -171.58834801589785, "alt_km": 881.1936090260715, "timestamp": "2025-12-06T07:31:40.516647+00:00", "meta": {"OBJECT_NAME": "FENGYUN 1C DEB", "OBJECT_ID": "1999-025BAW", "EPOCH": "2025-12-05T01:57:39.185856", "MEAN_MOTION": 14.14167187, "ECCENTRICITY": 0.00494596, "INCLINATION": 98.7601, "RA_OF_ASC_NODE": 13.2475, "ARG_OF_PERICENTER": 5.2071, "MEAN_ANOMALY": 61.3717, "EPHEMERIS_TYPE": 0, "CLASSIFICATION_TYPE": "U", "NORAD_CAT_ID": 30956, "ELEMENT_SET_NO": 999, "REV_AT_EPOCH": 96199, "BSTAR": 0.0017044242, "MEAN_MOTION_DOT": 3.244e-05, "MEAN_MOTION_DDOT": 0}, "tle": {"line1": "1 30956U 99025BAW 25339.08170354  .00003244  00000+0  17044-2 0  9998", "line2": "2 30956  98.7601  13.2475 0049459   5.2071  61.3717 14.14167187961993"}}, "geometry": {"type": "Point", "coordinates": [-171.58834801589785, -34.32552508139373]}}, {"type": "Feature", "properties": {"norad_id": 30960, "name": "FENGYUN 1C DEB", "group": "fengyun-1c-debris", "lat": -80.97892290089415, "lon": -171.07781974027537, "alt_km": 669.5859336064541, "timestamp": "2025-12-06T07:31:40.516658+00:00", "meta": {"OBJECT_NAME": "FENGYUN 1C DEB", "OBJECT_ID": "1999-025BBA", "EPOCH": "2025-12-04T13:22:39.779904", "MEAN_MOTION": 14.66591263, "ECCENTRICITY": 0.0196074, "INCLINATION": 99.0009, "RA_OF_ASC_NODE": 93.744, "ARG_OF_PERICENTER": 187.6876, "MEAN_ANOMALY": 172.1309, "EPHEMERIS_TYPE": 0, "CLASSIFICATION_TYPE": "U", "NORAD_CAT_ID": 30960, "ELEMENT_SET_NO": 999, "REV_AT_EPOCH": 98578, "BSTAR": 0.003317, "MEAN_MOTION_DOT": 0.00024577, "MEAN_MOTION_DDOT": 0}, "tle": {"line1": "1 30960U 99025BBA 25338.55740486  .00024577  00000+0  33170-2 0  9993", "line2": "2 30960  99.0009  93.7440 0196074 187.6876 172.1309 14.66591263985787"}}, "geometry": {"type": "Point", "coordinates": [-171.07781974027537, -80.97892290089415]}}]}